[{"CCSDS_OMM_VERS":"2.0","COMMENT":"GENERATED VIA SPACE-TRACK.ORG API","CREATION_DATE":"2020-10-11T22:16:10","ORIGINATOR":"18 SPCS","OBJECT_NAME":"ONEWEB-0007","OBJECT_ID":"2019-010D","CENTER_NAME":"EARTH","REF_FRAME":"TEME","TIME_SYSTEM":"UTC","MEAN_ELEMENT_THEORY":"SGP4","EPOCH":"2020-10-11T22:00:00.999936","MEAN_MOTION":"13.21786748","ECCENTRICITY":"0.00019560","INCLINATION":"87.9139","RA_OF_ASC_NODE":"311.1142","ARG_OF_PERICENTER":"88.9454","MEAN_ANOMALY":"253.3518","EPHEMERIS_TYPE":"0","CLASSIFICATION_TYPE":"U","NORAD_CAT_ID":"44060","ELEMENT_SET_NO":"999","REV_AT_EPOCH":"7843","BSTAR":"0.09711500000000","MEAN_MOTION_DOT":"0.00040277","MEAN_MOTION_DDOT":"0.0000000000000","SEMIMAJOR_AXIS":"7556.039","PERIOD":"108.943","APOAPSIS":"1179.382","PERIAPSIS":"1176.426","OBJECT_TYPE":"PAYLOAD","RCS_SIZE":"LARGE","COUNTRY_CODE":"UK","LAUNCH_DATE":"2019-02-27","SITE":"FRGUI","DECAY_DATE":null,"FILE":"2849228","GP_ID":"163274260","TLE_LINE0":"0 ONEWEB-0007","TLE_LINE1":"1 44060U 19010D   20285.91667824  .00040277  00000-0  97115-1 0  9999","TLE_LINE2":"2 44060  87.9139 311.1142 0001956  88.9454 253.3518 13.21786748 78431"},{"CCSDS_OMM_VERS":"2.0","COMMENT":"GENERATED VIA SPACE-TRACK.ORG API","CREATION_DATE":"2020-10-12T14:16:10","ORIGINATOR":"18 SPCS","OBJECT_NAME":"ONEWEB-0007","OBJECT_ID":"2019-010D","CENTER_NAME":"EARTH","REF_FRAME":"TEME","TIME_SYSTEM":"UTC","MEAN_ELEMENT_THEORY":"SGP4","EPOCH":"2020-10-12T14:00:01.000224","MEAN_MOTION":"13.21814829","ECCENTRICITY":"0.00019100","INCLINATION":"87.9140","RA_OF_ASC_NODE":"310.9800","ARG_OF_PERICENTER":"87.8073","MEAN_ANOMALY":"184.9988","EPHEMERIS_TYPE":"0","CLASSIFICATION_TYPE":"U","NORAD_CAT_ID":"44060","ELEMENT_SET_NO":"999","REV_AT_EPOCH":"7852","BSTAR":"0.00274210000000","MEAN_MOTION_DOT":"0.00001145","MEAN_MOTION_DDOT":"0.0000000000000","SEMIMAJOR_AXIS":"7555.932","PERIOD":"108.941","APOAPSIS":"1179.241","PERIAPSIS":"1176.354","OBJECT_TYPE":"PAYLOAD","RCS_SIZE":"LARGE","COUNTRY_CODE":"UK","LAUNCH_DATE":"2019-02-27","SITE":"FRGUI","DECAY_DATE":null,"FILE":"2849871","GP_ID":"163309212","TLE_LINE0":"0 ONEWEB-0007","TLE_LINE1":"1 44060U 19010D   20286.58334491  .00001145  00000-0  27421-2 0  9999","TLE_LINE2":"2 44060  87.9140 310.9800 0001910  87.8073 184.9988 13.21814829 78528"},{"CCSDS_OMM_VERS":"2.0","COMMENT":"GENERATED VIA SPACE-TRACK.ORG API","CREATION_DATE":"2020-10-13T02:04:22","ORIGINATOR":"18 SPCS","OBJECT_NAME":"ONEWEB-0007","OBJECT_ID":"2019-010D","CENTER_NAME":"EARTH","REF_FRAME":"TEME","TIME_SYSTEM":"UTC","MEAN_ELEMENT_THEORY":"SGP4","EPOCH":"2020-10-12T22:00:03.999744","MEAN_MOTION":"13.21787317","ECCENTRICITY":"0.00019340","INCLINATION":"87.9141","RA_OF_ASC_NODE":"310.9140","ARG_OF_PERICENTER":"88.8474","MEAN_ANOMALY":"329.3980","EPHEMERIS_TYPE":"0","CLASSIFICATION_TYPE":"U","NORAD_CAT_ID":"44060","ELEMENT_SET_NO":"999","REV_AT_EPOCH":"171","BSTAR":"0.10426000000000","MEAN_MOTION_DOT":"0.00043254","MEAN_MOTION_DDOT":"0.0000000000000","SEMIMAJOR_AXIS":"7556.037","PERIOD":"108.943","APOAPSIS":"1179.364","PERIAPSIS":"1176.441","OBJECT_TYPE":"PAYLOAD","RCS_SIZE":"LARGE","COUNTRY_CODE":"UK","LAUNCH_DATE":"2019-02-27","SITE":"FRGUI","DECAY_DATE":null,"FILE":"2850550","GP_ID":"163364266","TLE_LINE0":"0 ONEWEB-0007","TLE_LINE1":"1 44060U 19010D   20286.91671296 +.00043254 +00000-0 +10426+0 0  9994","TLE_LINE2":"2 44060 087.9141 310.9140 0001934 088.8474 329.3980 13.21787317001713"},{"CCSDS_OMM_VERS":"2.0","COMMENT":"GENERATED VIA SPACE-TRACK.ORG API","CREATION_DATE":"2020-10-13T18:45:37","ORIGINATOR":"18 SPCS","OBJECT_NAME":"ONEWEB-0007","OBJECT_ID":"2019-010D","CENTER_NAME":"EARTH","REF_FRAME":"TEME","TIME_SYSTEM":"UTC","MEAN_ELEMENT_THEORY":"SGP4","EPOCH":"2020-10-13T14:00:01.000224","MEAN_MOTION":"13.21817640","ECCENTRICITY":"0.00018840","INCLINATION":"87.9140","RA_OF_ASC_NODE":"310.7800","ARG_OF_PERICENTER":"86.9300","MEAN_ANOMALY":"261.6628","EPHEMERIS_TYPE":"0","CLASSIFICATION_TYPE":"U","NORAD_CAT_ID":"44060","ELEMENT_SET_NO":"999","REV_AT_EPOCH":"178","BSTAR":"-0.00291380000000","MEAN_MOTION_DOT":"-0.00001190","MEAN_MOTION_DDOT":"0.0000000000000","SEMIMAJOR_AXIS":"7555.922","PERIOD":"108.940","APOAPSIS":"1179.210","PERIAPSIS":"1176.363","OBJECT_TYPE":"PAYLOAD","RCS_SIZE":"LARGE","COUNTRY_CODE":"UK","LAUNCH_DATE":"2019-02-27","SITE":"FRGUI","DECAY_DATE":null,"FILE":"2851309","GP_ID":"163401861","TLE_LINE0":"0 ONEWEB-0007","TLE_LINE1":"1 44060U 19010D   20287.58334491 -.00001190 +00000-0 -29138-2 0  9999","TLE_LINE2":"2 44060 087.9140 310.7800 0001884 086.9300 261.6628 13.21817640001781"},{"CCSDS_OMM_VERS":"2.0","COMMENT":"GENERATED VIA SPACE-TRACK.ORG API","CREATION_DATE":"2020-10-14T04:20:47","ORIGINATOR":"18 SPCS","OBJECT_NAME":"ONEWEB-0007","OBJECT_ID":"2019-010D","CENTER_NAME":"EARTH","REF_FRAME":"TEME","TIME_SYSTEM":"UTC","MEAN_ELEMENT_THEORY":"SGP4","EPOCH":"2020-10-13T22:00:01.999584","MEAN_MOTION":"13.21787404","ECCENTRICITY":"0.00018990","INCLINATION":"87.9138","RA_OF_ASC_NODE":"310.7140","ARG_OF_PERICENTER":"88.2799","MEAN_ANOMALY":"45.6448","EPHEMERIS_TYPE":"0","CLASSIFICATION_TYPE":"U","NORAD_CAT_ID":"44060","ELEMENT_SET_NO":"999","REV_AT_EPOCH":"171","BSTAR":"0.10945000000000","MEAN_MOTION_DOT":"0.00045417","MEAN_MOTION_DDOT":"0.0000000000000","SEMIMAJOR_AXIS":"7556.037","PERIOD":"108.943","APOAPSIS":"1179.337","PERIAPSIS":"1176.467","OBJECT_TYPE":"PAYLOAD","RCS_SIZE":"LARGE","COUNTRY_CODE":"UK","LAUNCH_DATE":"2019-02-27","SITE":"FRGUI","DECAY_DATE":null,"FILE":"2851462","GP_ID":"163446078","TLE_LINE0":"0 ONEWEB-0007","TLE_LINE1":"1 44060U 19010D   20287.91668981 +.00045417 +00000-0 +10945+0 0  9991","TLE_LINE2":"2 44060 087.9138 310.7140 0001899 088.2799 045.6448 13.21787404001715"},{"CCSDS_OMM_VERS":"2.0","COMMENT":"GENERATED VIA SPACE-TRACK.ORG API","CREATION_DATE":"2020-10-14T20:53:38","ORIGINATOR":"18 SPCS","OBJECT_NAME":"ONEWEB-0007","OBJECT_ID":"2019-010D","CENTER_NAME":"EARTH","REF_FRAME":"TEME","TIME_SYSTEM":"UTC","MEAN_ELEMENT_THEORY":"SGP4","EPOCH":"2020-10-14T14:00:01.999872","MEAN_MOTION":"13.21819380","ECCENTRICITY":"0.00018840","INCLINATION":"87.9133","RA_OF_ASC_NODE":"310.5799","ARG_OF_PERICENTER":"86.4102","MEAN_ANOMALY":"338.0281","EPHEMERIS_TYPE":"0","CLASSIFICATION_TYPE":"U","NORAD_CAT_ID":"44060","ELEMENT_SET_NO":"999","REV_AT_EPOCH":"173","BSTAR":"-0.01240400000000","MEAN_MOTION_DOT":"-0.00005106","MEAN_MOTION_DDOT":"0.0000000000000","SEMIMAJOR_AXIS":"7555.915","PERIOD":"108.940","APOAPSIS":"1179.204","PERIAPSIS":"1176.357","OBJECT_TYPE":"PAYLOAD","RCS_SIZE":"LARGE","COUNTRY_CODE":"UK","LAUNCH_DATE":"2019-02-27","SITE":"FRGUI","DECAY_DATE":null,"FILE":"2852229","GP_ID":"163475461","TLE_LINE0":"0 ONEWEB-0007","TLE_LINE1":"1 44060U 19010D   20288.58335648 -.00005106 +00000-0 -12404-1 0  9993","TLE_LINE2":"2 44060 087.9133 310.5799 0001884 086.4102 338.0281 13.21819380001735"},{"CCSDS_OMM_VERS":"2.0","COMMENT":"GENERATED VIA SPACE-TRACK.ORG API","CREATION_DATE":"2020-10-15T04:21:20","ORIGINATOR":"18 SPCS","OBJECT_NAME":"ONEWEB-0007","OBJECT_ID":"2019-010D","CENTER_NAME":"EARTH","REF_FRAME":"TEME","TIME_SYSTEM":"UTC","MEAN_ELEMENT_THEORY":"SGP4","EPOCH":"2020-10-14T22:00:05.999904","MEAN_MOTION":"13.21787235","ECCENTRICITY":"0.00018820","INCLINATION":"87.9130","RA_OF_ASC_NODE":"310.5138","ARG_OF_PERICENTER":"87.9809","MEAN_ANOMALY":"121.9544","EPHEMERIS_TYPE":"0","CLASSIFICATION_TYPE":"U","NORAD_CAT_ID":"44060","ELEMENT_SET_NO":"999","REV_AT_EPOCH":"174","BSTAR":"0.10705000000000","MEAN_MOTION_DOT":"0.00044417","MEAN_MOTION_DDOT":"0.0000000000000","SEMIMAJOR_AXIS":"7556.038","PERIOD":"108.943","APOAPSIS":"1179.325","PERIAPSIS":"1176.481","OBJECT_TYPE":"PAYLOAD","RCS_SIZE":"LARGE","COUNTRY_CODE":"UK","LAUNCH_DATE":"2019-02-27","SITE":"FRGUI","DECAY_DATE":null,"FILE":"2852382","GP_ID":"163499908","TLE_LINE0":"0 ONEWEB-0007","TLE_LINE1":"1 44060U 19010D   20288.91673611 +.00044417 +00000-0 +10705+0 0  9991","TLE_LINE2":"2 44060 087.9130 310.5138 0001882 087.9809 121.9544 13.21787235001742"},{"CCSDS_OMM_VERS":"2.0","COMMENT":"GENERATED VIA SPACE-TRACK.ORG API","CREATION_DATE":"2020-10-15T06:16:09","ORIGINATOR":"18 SPCS","OBJECT_NAME":"ONEWEB-0007","OBJECT_ID":"2019-010D","CENTER_NAME":"EARTH","REF_FRAME":"TEME","TIME_SYSTEM":"UTC","MEAN_ELEMENT_THEORY":"SGP4","EPOCH":"2020-10-15T06:00:00.999648","MEAN_MOTION":"13.21826416","ECCENTRICITY":"0.00018360","INCLINATION":"87.9127","RA_OF_ASC_NODE":"310.4465","ARG_OF_PERICENTER":"87.7453","MEAN_ANOMALY":"267.1661","EPHEMERIS_TYPE":"0","CLASSIFICATION_TYPE":"U","NORAD_CAT_ID":"44060","ELEMENT_SET_NO":"999","REV_AT_EPOCH":"7887","BSTAR":"-0.08642500000000","MEAN_MOTION_DOT":"-0.00035541","MEAN_MOTION_DDOT":"0.0000000000000","SEMIMAJOR_AXIS":"7555.888","PERIOD":"108.940","APOAPSIS":"1179.141","PERIAPSIS":"1176.366","OBJECT_TYPE":"PAYLOAD","RCS_SIZE":"LARGE","COUNTRY_CODE":"UK","LAUNCH_DATE":"2019-02-27","SITE":"FRGUI","DECAY_DATE":null,"FILE":"2852400","GP_ID":"163501851","TLE_LINE0":"0 ONEWEB-0007","TLE_LINE1":"1 44060U 19010D   20289.25001157 -.00035541  00000-0 -86425-1 0  9993","TLE_LINE2":"2 44060  87.9127 310.4465 0001836  87.7453 267.1661 13.21826416 78878"}]